QIANFAN-9               
1 60387U 24140J   25344.46251661  .00000143  00000+0  20285-3 0  9991
2 60387  88.9762 299.5720 0015150 198.5897 161.4703 13.50981009 67022
QIANFAN-10              
1 60388U 24140K   25344.46670593  .00000130  00000+0  18322-3 0  9996
2 60388  88.9772 298.9185 0014347 174.2485 185.8834 13.50981473 67157
QIANFAN-11              
1 60389U 24140L   25344.50378406  .00000129  00000+0  18062-3 0  9999
2 60389  88.9698 299.5036 0013224 197.2873 162.7829 13.50977732 66819
QIANFAN-12              
1 60390U 24140M   25344.45021425  .00000128  00000+0  17922-3 0  9994
2 60390  88.9741 299.5516 0011806 205.7885 154.2679 13.50978530 66934
QIANFAN-13              
1 60391U 24140N   25344.42141178  .00000131  00000+0  18360-3 0  9991
2 60391  88.9753 299.6542 0011563 208.7476 151.3039 13.50979030 66953
QIANFAN-14              
1 60392U 24140P   25344.44600573  .00000127  00000+0  17790-3 0  9994
2 60392  88.9732 299.5497 0015224 210.1175 149.9103 13.50978574 66968
QIANFAN-15              
1 60393U 24140Q   25344.45429265  .00000126  00000+0  17588-3 0  9997
2 60393  88.9756 299.5048 0011437 193.1491 166.9363 13.50977333 66958
QIANFAN-16              
1 60394U 24140R   25344.44207230  .00000120  00000+0  16697-3 0  9997
2 60394  88.9758 299.6262 0013085 213.6940 146.3381 13.50982676 66866
